KUIPER-00035            
1 63748U 25088AA  25295.47371718  .00001101  00000+0  17346-3 0  9998
2 63748  51.9031   5.2969 0004784 334.3343  25.7381 14.79941296 27047
KUIPER-00037            
1 63749U 25088AB  25295.47545608  .00004896  00000+0  67052-3 0  9993
2 63749  51.9004   4.2450 0007397 285.5099  74.5047 14.79948261 27848
KUIPER-00038            
1 63750U 25088AC  25295.42094844  .00002837  00000+0  42812-3 0  9991
2 63750  51.9028 349.4617 0006040 348.2160  11.8659 14.77102984 27042
KUIPER-00039            
1 64500U 25134A   25295.53159715  .00000196  00000+0  55031-4 0  9992
2 64500  51.8989 124.0088 0011830 191.6980 168.3709 14.79947689 19612
KUIPER-00040            
1 64501U 25134B   25295.51926506  .00004402  00000+0  60482-3 0  9990
2 64501  51.8979 135.2286 0018394 171.3376 188.7907 14.79942907 19458
KUIPER-00041            
1 64502U 25134C   25295.45066054  .00004776  00000+0  65397-3 0  9991
2 64502  51.8973 136.8897 0014838 163.6747 196.4696 14.79954514 19428
KUIPER-00042            
1 64503U 25134D   25295.52196383  .00004871  00000+0  66672-3 0  9992
2 64503  51.8973 132.5730 0013339 174.8710 185.2391 14.79946534 19495
KUIPER-00043            
1 64504U 25134E   25295.53012499  .00003753  00000+0  52092-3 0  9998
2 64504  51.8998 124.9726 0004304 157.8920 202.2229 14.79943949 19609
